FENGYUN 1C DEB          
1 30265U 99025YA  17345.34482524  .00000990  00000-0  42002-3 0  9992
2 30265  98.8198  27.7482 0049414 347.2619 145.2101 14.27043913565065
